STARLINK-38047          
1 69745U 26150G   26204.46449334  .00183074  00000+0  11994-2 0  9994
2 69745  97.2839  43.2451 0001336  78.3371 281.8044 15.75243455  4622
STARLINK-38046          
1 69746U 26150H   26204.51143492  .00245410  00000+0  15923-2 0  9996
2 69746  97.2859  43.3353 0002024 109.3421 250.8063 15.75291836  4637
STARLINK-38067          
1 69747U 26150J   26204.47684525  .00241151  00000+0  15676-2 0  9992
2 69747  97.2841  43.2279 0001719 105.4067 254.7388 15.75260331  4626
STARLINK-37988          
1 69748U 26150K   26204.09391644  .00220123  00000+0  14391-2 0  9997
2 69748  97.2841  42.8299 0001514  62.2854 297.8564 15.75187504  4568
STARLINK-37987          
1 69749U 26150L   26204.47084778  .00203511  00000+0  13296-2 0  9992
2 69749  97.2835  43.2366 0001832  51.7168 308.4262 15.75249940  4620
STARLINK-38037          
1 69750U 26150M   26204.83335647 -.00167973  00000+0 -11443-2 0  9993
2 69750  97.2841  43.6904 0001355  90.4642 333.9330 15.75255529  4683
STARLINK-38049          
1 69751U 26150N   26204.49047411  .00260937  00000+0  13165-2 0  9990
2 69751  97.2851  43.3642 0001158 104.8113 255.3284 15.80917653  4634
STARLINK-38029          
1 69752U 26150P   26204.45426119  .00265141  00000+0  17175-2 0  9990
2 69752  97.2830  43.2590 0001987 100.0179 260.1310 15.75274901  4622
STARLINK-37965          
1 69753U 26150Q   26204.46094830  .00219421  00000+0  14300-2 0  9990
2 69753  97.2836  43.2487 0001002  82.7735 277.3644 15.75262442  4623
STARLINK-38048          
1 69754U 26150R   26204.10454235  .00288696  00000+0  14527-2 0  9992
2 69754  97.2862  42.9698 0001030  56.6178 303.5189 15.80905064  4575
STARLINK-38006          
1 69755U 26150S   26204.13414965  .00089237  00000+0  59205-3 0  9995
2 69755  97.2845  42.9300 0001019  96.8677 263.2704 15.75224518  4571
STARLINK-38036          
1 69756U 26150T   26204.50861314  .00249550  00000+0  16191-2 0  9993
2 69756  97.2839  43.3412 0001509  99.3883 260.7553 15.75282261  4635
STARLINK-38058          
1 69757U 26150U   26204.49837693  .00315205  00000+0  20288-2 0  9998
2 69757  97.2848  43.3546 0001650 113.5955 246.5483 15.75284274  4630
STARLINK-38066          
1 69758U 26150V   26204.83335647 -.00069053  00000+0 -46636-3 0  9994
2 69758  97.2841  43.7164 0001302 104.7009  17.6915 15.75164139  4689
STARLINK-38035          
1 69759U 26150W   26204.83335647 -.00012598  00000+0 -83764-4 0  9991
2 69759  97.2846  43.7396 0001227  90.8206  85.5858 15.75177111  4686
STARLINK-38056          
1 69760U 26150X   26204.28637441  .00324076  00000+0  16228-2 0  9993
2 69760  97.2847  43.1836 0001683  70.6505 289.4945 15.80921132  4606
STARLINK-38069          
1 69761U 26150Y   26204.49202648  .00200971  00000+0  13112-2 0  9990
2 69761  97.2846  43.3628 0002997  83.3222 276.8384 15.75286718  4631
STARLINK-38019          
1 69762U 26150Z   26204.06992045  .00186102  00000+0  12194-2 0  9999
2 69762  97.2839  42.8642 0001263 101.9657 258.1750 15.75230661  4566
KUIPER-00258            
1 69763U 26151A   26204.79710558  .00027257  00000+0  81396-3 0  9994
2 69763  51.8663 139.1215 0010702 188.8753 171.2045 15.34359696  3334
KUIPER-00526            
1 69764U 26151B   26204.83335647 -.01615045  00000+0 -56314-1 0  9993
2 69764  51.8783 138.6819 0005538 165.9871 167.4624 15.32133190  3461
KUIPER-00558            
1 69765U 26151C   26204.83335647 -.01821096  00000+0 -77413-1 0  9992
2 69765  51.8817 139.0210 0006803 179.8534 344.6815 15.26132474  3947
KUIPER-00569            
1 69766U 26151D   26204.83024911  .00036800  00000+0  98554-3 0  9991
2 69766  51.8784 138.6136 0005135 167.3253 192.7864 15.37651829  3342
KUIPER-00589            
1 69767U 26151E   26204.83335647 -.01513888  00000+0 -54410-1 0  9993
2 69767  51.8767 138.6803 0005831 171.3562 152.9447 15.31485663  3986
KUIPER-00598            
1 69768U 26151F   26204.66668980  .00060024  00000+0  17810-2 0  9994
2 69768  51.8645 139.7586 0008770 191.7943 160.0178 15.34205037  3862
KUIPER-00604            
1 69769U 26151G   26204.10519738 -.00059555  00000+0 -15640-2 0  9998
2 69769  51.8797 142.0067 0002639 125.8861 234.2372 15.38119408  3238
KUIPER-00609            
1 69770U 26151H   26204.42428821  .00027115  00000+0  70317-3 0  9995
2 69770  51.8802 140.3956 0001112  69.8751 290.2356 15.38809442  3288
KUIPER-00611            
1 69771U 26151J   26204.55689495  .00028753  00000+0  74925-3 0  9994
2 69771  51.8815 139.7806 0001527 143.5876 216.5215 15.38628893  3304
KUIPER-00612            
1 69772U 26151K   26204.82384529  .00039123  00000+0  10306-2 0  9990
2 69772  51.8794 138.5728 0004071 143.9984 216.1278 15.38137156  3348
KUIPER-00614            
1 69773U 26151L   26204.04137224  .00029081  00000+0  76716-3 0  9993
2 69773  51.8797 142.3282 0003222 153.6537 206.4614 15.38242293  3221
KUIPER-00615            
1 69774U 26151M   26204.83335647 -.00778392  00000+0 -24562-1 0  9998
2 69774  51.8782 138.6968 0006594 182.5212 154.3952 15.34616040  2171
